#aV2021  9  5  0  0  0.00000000     288 DD+AD WGS84 FIT  NGA
## 2174      0.00000000   300.00000000 59462 0.0000000000000
+   32     1  2  3  4  5  6  7  8  9 10 11 12 13 14 15 16 17
+         18 19 20 21 22 23 24 25 26 27 28 29 30 31 32  0  0
+          0  0  0  0  0  0  0  0  0  0  0  0  0  0  0  0  0
+          0  0  0  0  0  0  0  0  0  0  0  0  0  0  0  0  0
+          0  0  0  0  0  0  0  0  0  0  0  0  0  0  0  0  0
++         2  2  2  2  2  2  2  2  2  2  2  2  2  2  2  2  2
++         2  2  2  2  2  2  2  2  2  2  2  2  2  2  2  0  0
++         0  0  0  0  0  0  0  0  0  0  0  0  0  0  0  0  0
++         0  0  0  0  0  0  0  0  0  0  0  0  0  0  0  0  0
++         0  0  0  0  0  0  0  0  0  0  0  0  0  0  0  0  0
%c cc cc ccc ccc cccc cccc cccc cccc ccccc ccccc ccccc ccccc
%c cc cc ccc ccc cccc cccc cccc cccc ccccc ccccc ccccc ccccc
%f  0.0000000  0.000000000  0.00000000000  0.000000000000000
%f  0.0000000  0.000000000  0.00000000000  0.000000000000000
%i    0    0    0    0      0      0      0      0         0
%i    0    0    0    0      0      0      0      0         0
/*      NGA, ST. LOUIS,MO.                                  
/*   EPHEMERIS COMPUTED FROM 2 DAYS OF DATA                 
/*   EPOCHA v7 SMOOTHER                                     
/*   G2139 IERS2010 SATIGS SATAPC                           
*  2021  9  5  3 15  0.00000000
P  1 -15382.988765 -13442.172243 -17430.269815    576.957290                    
V  1  21382.572099   1502.270717 -20024.908338     -0.111200                    
P  2  -9531.743685  14263.821725  20951.594188   -630.512713                    
V  2 -25070.865411  -1528.178367 -10632.088100     -0.021789                    
P  3 -12345.269859 -23424.994693   2629.152268   -278.369367                    
V  3    811.850722  -4132.522218 -31664.908486     -0.131086                    
P  4  -6815.216287 -14939.599711  20867.607777   -204.285037                    
V  4  16980.665801 -20361.277571  -9096.903117     -0.000612                    
P  5   4481.076447  24266.597246   9435.449036    -53.374379                    
V  5  -7917.856278  -9791.237325  28603.785666     -0.012111                    
P  6 -21507.719177   7020.459313  14015.300304     68.461642                    
V  6 -17363.056906  -3440.287194 -24969.349486      0.070672                    
P  7 -25481.095136  -6743.389448   5355.015233    239.089512                    
V  7   6501.727225  -1842.687908  30261.987582      0.073816                    
P  8   2423.894741 -21587.070756 -15077.791759    -35.286902                    
V  8  12762.918008 -14547.463894  23200.218922     -0.014230                    
P  9 -15645.779314  -3716.959088  21075.980252   -360.391353                    
V  9  14922.225965 -22434.009525   7074.769918     -0.007071                    
P 10  15430.069783  -1529.101242 -21480.905190   -196.748495                    
V 10  10886.161880  25239.566442   5716.258618     -0.077702                    
P 11 -11431.785108  12573.589994  20395.300814     40.677973                    
V 11 -25423.420685  -5223.369759 -11031.409312      0.020855                    
P 12  10237.732627  24486.696346   1962.251109    -92.843858                    
V 12  -1273.413938   3416.147449 -31788.980916     -0.054064                    
P 13 -11000.284895  21824.551943 -10354.943299    181.035928                    
V 13 -10656.042990   7769.505592  28225.244645      0.053052                    
P 14 -15607.002384   1695.461164 -21430.822499      8.267093                    
V 14  -9542.897880 -25497.509869   4881.335409     -0.082639                    
P 15    891.501359  21788.256099 -15311.221714   -123.388452                    
V 15 -11697.256496  15222.760061  21869.761468      0.027421                    
P 16   2008.457383 -22484.678343  13370.964186   -385.302759                    
V 16   7840.635007  15869.779702  25493.224190     -0.063158                    
P 17 -20082.554139   9424.749776 -14179.694343    499.980527                    
V 17  10556.579258 -15547.255727 -24536.327795      0.056823                    
P 18  25934.328477   5248.782943   2800.661695    325.834630                    
V 18  -3843.219871   1998.006699  31612.979251     -0.040327                    
P 19 -20406.173479  15410.556286  -7140.850515     48.786679                    
V 19   4252.921143  -7915.681050 -30553.979961      0.050008                    
P 20  -3756.157635  18991.616833  18263.706018    519.297508                    
V 20 -13893.999550 -18694.422049  16293.423185     -0.001768                    
P 21  -7725.537445 -14503.193193 -20285.441226    141.043429                    
V 21  27245.720316     56.251823  -9554.351197      0.020361                    
P 22  -9681.225093 -24307.499340  -4992.601287   -521.024395                    
V 22   6160.456204   4011.627099 -30206.804800      0.093513                    
P 23  17817.305450  10426.097810 -16775.212581     61.617380                    
V 23   7602.864841  19877.901131  20389.813654     -0.049231                    
P 24  11165.253045  14746.865204 -19454.873297    227.101116                    
V 24 -24152.227004    495.346769 -13263.605706      0.093668                    
P 25  16308.899964  18025.866406  10748.889965    202.987287                    
V 25   3541.864207  13702.111461 -27409.861981      0.063823                    
P 26   9773.210495 -13740.133264  20402.399461    130.641225                    
V 26  12785.158228  22875.911155   9532.762988      0.042942                    
P 27  10961.545326 -23014.618154  -6917.315570   -188.422386                    
V 27   7098.563784  -5494.491712  30674.571474     -0.053795                    
P 28 -12442.037226   8657.142001 -21286.145178    507.076796                    
V 28  -9333.665931 -26694.478232  -5080.701156     -0.070366                    
P 29  13210.534623   6974.965589  21919.382690   -406.896103                    
V 29 -17851.520984  21403.626116   3876.841653     -0.057601                    
P 30 -25818.640685   1481.401258  -6506.778746   -469.613178                    
V 30  -7843.090122  -4280.176808  29583.941891     -0.039170                    
P 31  20515.640502  -8041.189997  15062.386128   -138.066578                    
V 31  18713.409838   4353.687720 -22559.062971     -0.020252                    
P 32  19678.304184 -12875.675343 -12059.568326      2.251638                    
V 32  -6982.370920  14146.097142 -26419.829783     -0.031734                    
EOF
